1 53709U 22107K   22257.58334491 -.00669844  00000-0 -50366-2 0  9992
2 53709  53.2166 226.1563 0001190  97.6839  85.5899 15.73761382  1308
1 53709U 22107K   22257.83334491 -.00065567  00000-0 -46555-3 0  9998
2 53709  53.2172 224.9171 0001041 102.3961  57.9409 15.73242986  1653
1 53709U 22107K   22257.91667824 -.00113321  00000-0 -80857-3 0  9991
2 53709  53.2147 224.5050 0001526 112.2545 160.2666 15.73352483  1302
1 53709U 22107K   22258.16667824 -.00068644  00000-0 -48728-3 0  9997
2 53709  53.2146 223.2695 0001293 102.2133 147.1242 15.73266313  1709
1 53709U 22107K   22258.58334491 -.00045302  00000-0 -31948-3 0  9996
2 53709  53.2148 221.2066 0001137 107.8073 342.7644 15.73245585  1305
1 53709U 22107K   22258.91667824 -.00019464  00000-0 -13443-3 0  9992
2 53709  53.2149 219.5564 0001224 117.7296  61.8029 15.73226616  1303
1 53709U 22107K   22259.00001157 -.00062461  00000-0 -44335-3 0  9993
2 53709  53.2148 219.1446 0001121 116.3998 175.3671 15.73230860  1835
1 53709U 22107K   22259.58334491  .00008219  00000-0  63093-4 0  9998
2 53709  53.2140 216.2581 0001058 117.5118 239.8590 15.73132652  1309
1 53709U 22107K   22259.91667824  .00058623  00000-0  41995-3 0  9994
2 53709  53.2142 214.6081 0001183 123.8351 322.3854 15.73158163  1302
1 53709U 22107K   22259.91667824  .00058623  00000-0  41995-3 0  9994
2 53709  53.2142 214.6081 0001183 123.8351 322.3854 15.73158163  1986
1 53709U 22107K   22260.58334491 -.00012583  00000-0 -85317-4 0  9994
2 53709  53.2143 211.3096 0001243 114.5645 149.5069 15.73213819  1300
1 53709U 22107K   22260.58334491 -.00012583  00000-0 -85317-4 0  9994
2 53709  53.2143 211.3096 0001243 114.5645 149.5069 15.73213819  2086
1 53709U 22107K   22260.91667824 -.00065197  00000-0 -46293-3 0  9998
2 53709  53.2142 209.6597 0001471 116.2107 236.7850 15.73238837  1304
1 53709U 22107K   22261.58335648 -.00003558  00000-0 -20946-4 0  9999
2 53709  53.2135 206.3608 0001299 120.8450  50.1101 15.73198849  1308
1 53709U 22107K   22261.58335648 -.00003558  00000-0 -20946-4 0  9999
2 53709  53.2135 206.3608 0001299 120.8450  50.1101 15.73198849  2242
1 53709U 22107K   22261.91667824  .00050129  00000-0  35914-3 0  9994
2 53709  53.2137 204.7111 0001340 128.3243 131.4844 15.73220876  2293
1 53709U 22107K   22262.58334491  .00002244  00000-0  20403-4 0  9992
2 53709  53.2139 201.4120 0001226 126.8955 310.8709 15.73194655  2406
1 53709U 22107K   22262.91667824 -.00024418  00000-0 -16996-3 0  9998
2 53709  53.2140 199.7624 0001445 124.1018  42.5953 15.73213380  1305
1 53709U 22107K   22263.58334491  .00064433  00000-0  46056-3 0  9992
2 53709  53.2134 196.4632 0001298 132.9193 211.6137 15.73170933  1307
1 53709U 22107K   22263.91668981 -.00078803  00000-0 -56066-3 0  9993
2 53709  53.2137 194.8139 0001292 135.8716 297.6356 15.73268858  2617
